{"spkid": "20450263", "covariance": {"elements": [{"label": "e", "units": null, "value": ".4091089562804332", "title": "eccentricity", "name": "e", "sigma": 1.450922915599e-08}, {"label": "q", "sigma": 2.04122145734038e-08, "name": "q", "title": "perihelion distance", "value": ".8428628742242518", "units": "au"}, {"units": "TDB", "title": "time of perihelion passage", "value": "2459326.377541322846", "sigma": 1.75071443931973e-06, "name": "tp", "label": "tp"}, {"units": "deg", "value": "92.25737520045425", "title": "longitude of the ascending node", "name": "om", "sigma": 3.0652377478068e-06, "label": "node"}, {"label": "peri", "sigma": 3.4977053538987e-06, "name": "w", "units": "deg", "value": "102.2848738778189", "title": "argument of perihelion"}, {"sigma": 4.02350164475293e-06, "name": "i", "units": "deg", "title": "inclination", "value": "16.72509279069509", "label": "i"}], "data": [["2.105177307010315E-16", "-2.957263318580188E-16", "-3.914821977812568E-15", "7.121250859355825E-15", "-3.151992054446015E-14", "-1.030271225621956E-14"], ["-2.957263318580188E-16", "4.166585037906796E-16", "5.218189618534774E-15", "-1.003436025183485E-14", "4.378525791677544E-14", "1.458392753954285E-14"], ["-3.914821977812568E-15", "5.218189618534774E-15", "3.065001048042609E-12", "4.001202884509442E-12", "2.939575861324935E-14", "-5.349635578080744E-12"], ["7.121250859355825E-15", "-1.003436025183485E-14", "4.001202884509442E-12", "9.395682450579716E-12", "-6.860558265612944E-12", "-1.23031180528098E-11"], ["-3.151992054446015E-14", "4.378525791677544E-14", "2.939575861324935E-14", "-6.860558265612944E-12", "1.223394274269165E-11", "8.781593215978241E-12"], ["-1.030271225621956E-14", "1.458392753954285E-14", "-5.349635578080744E-12", "-1.23031180528098E-11", "8.781593215978241E-12", "1.618856548532954E-11"]], "labels": ["e", "q", "tp", "node", "peri", "i"], "epoch": "2459428.5"}, "elements": [{"title": "eccentricity", "value": ".4090976444774003", "units": null, "name": "e", "sigma": "1.4511E-8", "label": "e"}, {"value": "1.426394168747609", "title": "semi-major axis", "units": "au", "sigma": "1.9353E-9", "name": "a", "label": "a"}, {"sigma": "2.0423E-8", "name": "q", "value": ".8428596742166627", "title": "perihelion distance", "units": "au", "label": "q"}, {"title": "inclination; angle with respect to x-y ecliptic plane", "value": "16.7274055951651", "units": "deg", "name": "i", "sigma": "4.0244E-6", "label": "i"}, {"label": "node", "name": "om", "sigma": "3.0623E-6", "units": "deg", "title": "longitude of the ascending node", "value": "92.1979117480462"}, {"name": "w", "sigma": "3.4898E-6", "units": "deg", "title": "argument of perihelion", "value": "102.3593577386558", "label": "peri"}, {"name": "ma", "sigma": "2.275E-6", "units": "deg", "title": "mean anomaly", "value": "4.267840359479227", "label": "M"}, {"title": "time of perihelion passage", "value": "2461193.123277874743", "units": "TDB", "name": "tp", "sigma": "3.9188E-6", "label": "tp"}, {"label": "period", "name": "per", "sigma": "1.2664E-6", "units": "d", "value": "622.2397609587565", "title": "sidereal orbital period"}, {"label": "n", "name": "n", "sigma": "1.1774E-9", "value": ".5785551206906265", "title": "mean motion", "units": "deg/d"}, {"label": "Q", "units": "au", "value": "2.009928663278556", "title": "aphelion distance", "sigma": "2.727E-9", "name": "ad"}], "epoch": "2461200.5"}